<?xml version="1.0" encoding="UTF-8"?>
<ndm xmlns:xsi="http://www.w3.org/2001/XMLSchema-instance" xsi:noNamespaceSchemaLocation="https://sanaregistry.org/r/ndmxml_unqualified/ndmxml-2.0.0-master-2.0.xsd">
<omm id="CCSDS_OMM_VERS" version="2.0">
<header><CREATION_DATE/><ORIGINATOR/></header><body><segment><metadata><OBJECT_NAME>ONEWEB-0102</OBJECT_NAME><OBJECT_ID>2020-100A</OBJECT_ID><CENTER_NAME>EARTH</CENTER_NAME><REF_FRAME>TEME</REF_FRAME><TIME_SYSTEM>UTC</TIME_SYSTEM><MEAN_ELEMENT_THEORY>SGP4</MEAN_ELEMENT_THEORY></metadata><data><meanElements><EPOCH>2024-07-09T02:53:07.065888</EPOCH><MEAN_MOTION>13.12443524</MEAN_MOTION><ECCENTRICITY>.0001882</ECCENTRICITY><INCLINATION>87.8953</INCLINATION><RA_OF_ASC_NODE>131.6842</RA_OF_ASC_NODE><ARG_OF_PERICENTER>77.4488</ARG_OF_PERICENTER><MEAN_ANOMALY>282.6851</MEAN_ANOMALY></meanElements><tleParameters><EPHEMERIS_TYPE>0</EPHEMERIS_TYPE><CLASSIFICATION_TYPE>U</CLASSIFICATION_TYPE><NORAD_CAT_ID>47258</NORAD_CAT_ID><ELEMENT_SET_NO>999</ELEMENT_SET_NO><REV_AT_EPOCH>17185</REV_AT_EPOCH><BSTAR>.65073E-3</BSTAR><MEAN_MOTION_DOT>.247E-5</MEAN_MOTION_DOT><MEAN_MOTION_DDOT>0</MEAN_MOTION_DDOT></tleParameters></data></segment></body></omm>
<omm id="CCSDS_OMM_VERS" version="2.0">
<header><CREATION_DATE/><ORIGINATOR/></header><body><segment><metadata><OBJECT_NAME>ONEWEB-0109</OBJECT_NAME><OBJECT_ID>2020-100B</OBJECT_ID><CENTER_NAME>EARTH</CENTER_NAME><REF_FRAME>TEME</REF_FRAME><TIME_SYSTEM>UTC</TIME_SYSTEM><MEAN_ELEMENT_THEORY>SGP4</MEAN_ELEMENT_THEORY></metadata><data><meanElements><EPOCH>2024-07-09T03:04:48.005760</EPOCH><MEAN_MOTION>13.12445410</MEAN_MOTION><ECCENTRICITY>.0001927</ECCENTRICITY><INCLINATION>87.8954</INCLINATION><RA_OF_ASC_NODE>131.6474</RA_OF_ASC_NODE><ARG_OF_PERICENTER>77.7948</ARG_OF_PERICENTER><MEAN_ANOMALY>282.3396</MEAN_ANOMALY></meanElements><tleParameters><EPHEMERIS_TYPE>0</EPHEMERIS_TYPE><CLASSIFICATION_TYPE>U</CLASSIFICATION_TYPE><NORAD_CAT_ID>47259</NORAD_CAT_ID><ELEMENT_SET_NO>999</ELEMENT_SET_NO><REV_AT_EPOCH>17168</REV_AT_EPOCH><BSTAR>.11974E-2</BSTAR><MEAN_MOTION_DOT>.444E-5</MEAN_MOTION_DOT><MEAN_MOTION_DDOT>0</MEAN_MOTION_DDOT></tleParameters></data></segment></body></omm>
<omm id="CCSDS_OMM_VERS" version="2.0">
<header><CREATION_DATE/><ORIGINATOR/></header><body><segment><metadata><OBJECT_NAME>ONEWEB-0110</OBJECT_NAME><OBJECT_ID>2020-100C</OBJECT_ID><CENTER_NAME>EARTH</CENTER_NAME><REF_FRAME>TEME</REF_FRAME><TIME_SYSTEM>UTC</TIME_SYSTEM><MEAN_ELEMENT_THEORY>SGP4</MEAN_ELEMENT_THEORY></metadata><data><meanElements><EPOCH>2024-07-08T22:12:49.235904</EPOCH><MEAN_MOTION>13.12441658</MEAN_MOTION><ECCENTRICITY>.0002021</ECCENTRICITY><INCLINATION>87.8948</INCLINATION><RA_OF_ASC_NODE>131.6923</RA_OF_ASC_NODE><ARG_OF_PERICENTER>75.1500</ARG_OF_PERICENTER><MEAN_ANOMALY>284.9852</MEAN_ANOMALY></meanElements><tleParameters><EPHEMERIS_TYPE>0</EPHEMERIS_TYPE><CLASSIFICATION_TYPE>U</CLASSIFICATION_TYPE><NORAD_CAT_ID>47260</NORAD_CAT_ID><ELEMENT_SET_NO>999</ELEMENT_SET_NO><REV_AT_EPOCH>17182</REV_AT_EPOCH><BSTAR>-.24928E-3</BSTAR><MEAN_MOTION_DOT>-.77E-6</MEAN_MOTION_DOT><MEAN_MOTION_DDOT>0</MEAN_MOTION_DDOT></tleParameters></data></segment></body></omm>
<omm id="CCSDS_OMM_VERS" version="2.0">
<header><CREATION_DATE/><ORIGINATOR/></header><body><segment><metadata><OBJECT_NAME>ONEWEB-0111</OBJECT_NAME><OBJECT_ID>2020-100D</OBJECT_ID><CENTER_NAME>EARTH</CENTER_NAME><REF_FRAME>TEME</REF_FRAME><TIME_SYSTEM>UTC</TIME_SYSTEM><MEAN_ELEMENT_THEORY>SGP4</MEAN_ELEMENT_THEORY></metadata><data><meanElements><EPOCH>2024-07-08T21:07:24.756960</EPOCH><MEAN_MOTION>13.12445900</MEAN_MOTION><ECCENTRICITY>.0001977</ECCENTRICITY><INCLINATION>87.8953</INCLINATION><RA_OF_ASC_NODE>131.6983</RA_OF_ASC_NODE><ARG_OF_PERICENTER>78.4519</ARG_OF_PERICENTER><MEAN_ANOMALY>281.6832</MEAN_ANOMALY></meanElements><tleParameters><EPHEMERIS_TYPE>0</EPHEMERIS_TYPE><CLASSIFICATION_TYPE>U</CLASSIFICATION_TYPE><NORAD_CAT_ID>47261</NORAD_CAT_ID><ELEMENT_SET_NO>999</ELEMENT_SET_NO><REV_AT_EPOCH>17165</REV_AT_EPOCH><BSTAR>-.29598E-3</BSTAR><MEAN_MOTION_DOT>-.94E-6</MEAN_MOTION_DOT><MEAN_MOTION_DDOT>0</MEAN_MOTION_DDOT></tleParameters></data></segment></body></omm>
<omm id="CCSDS_OMM_VERS" version="2.0">
<header><CREATION_DATE/><ORIGINATOR/></header><body><segment><metadata><OBJECT_NAME>ONEWEB-0114</OBJECT_NAME><OBJECT_ID>2020-100E</OBJECT_ID><CENTER_NAME>EARTH</CENTER_NAME><REF_FRAME>TEME</REF_FRAME><TIME_SYSTEM>UTC</TIME_SYSTEM><MEAN_ELEMENT_THEORY>SGP4</MEAN_ELEMENT_THEORY></metadata><data><meanElements><EPOCH>2024-07-08T21:51:47.346624</EPOCH><MEAN_MOTION>13.12440984</MEAN_MOTION><ECCENTRICITY>.0001624</ECCENTRICITY><INCLINATION>87.8951</INCLINATION><RA_OF_ASC_NODE>131.7070</RA_OF_ASC_NODE><ARG_OF_PERICENTER>80.0055</ARG_OF_PERICENTER><MEAN_ANOMALY>280.1257</MEAN_ANOMALY></meanElements><tleParameters><EPHEMERIS_TYPE>0</EPHEMERIS_TYPE><CLASSIFICATION_TYPE>U</CLASSIFICATION_TYPE><NORAD_CAT_ID>47262</NORAD_CAT_ID><ELEMENT_SET_NO>999</ELEMENT_SET_NO><REV_AT_EPOCH>17161</REV_AT_EPOCH><BSTAR>.11508E-2</BSTAR><MEAN_MOTION_DOT>.427E-5</MEAN_MOTION_DOT><MEAN_MOTION_DDOT>0</MEAN_MOTION_DDOT></tleParameters></data></segment></body></omm>
<omm id="CCSDS_OMM_VERS" version="2.0">
<header><CREATION_DATE/><ORIGINATOR/></header><body><segment><metadata><OBJECT_NAME>ONEWEB-0117</OBJECT_NAME><OBJECT_ID>2020-100F</OBJECT_ID><CENTER_NAME>EARTH</CENTER_NAME><REF_FRAME>TEME</REF_FRAME><TIME_SYSTEM>UTC</TIME_SYSTEM><MEAN_ELEMENT_THEORY>SGP4</MEAN_ELEMENT_THEORY></metadata><data><meanElements><EPOCH>2024-07-09T04:59:15.896832</EPOCH><MEAN_MOTION>13.12443625</MEAN_MOTION><ECCENTRICITY>.0002082</ECCENTRICITY><INCLINATION>87.8954</INCLINATION><RA_OF_ASC_NODE>131.6241</RA_OF_ASC_NODE><ARG_OF_PERICENTER>79.2249</ARG_OF_PERICENTER><MEAN_ANOMALY>280.9114</MEAN_ANOMALY></meanElements><tleParameters><EPHEMERIS_TYPE>0</EPHEMERIS_TYPE><CLASSIFICATION_TYPE>U</CLASSIFICATION_TYPE><NORAD_CAT_ID>47263</NORAD_CAT_ID><ELEMENT_SET_NO>999</ELEMENT_SET_NO><REV_AT_EPOCH>17166</REV_AT_EPOCH><BSTAR>.13108E-2</BSTAR><MEAN_MOTION_DOT>.484E-5</MEAN_MOTION_DOT><MEAN_MOTION_DDOT>0</MEAN_MOTION_DDOT></tleParameters></data></segment></body></omm>
<omm id="CCSDS_OMM_VERS" version="2.0">
<header><CREATION_DATE/><ORIGINATOR/></header><body><segment><metadata><OBJECT_NAME>ONEWEB-0118</OBJECT_NAME><OBJECT_ID>2020-100G</OBJECT_ID><CENTER_NAME>EARTH</CENTER_NAME><REF_FRAME>TEME</REF_FRAME><TIME_SYSTEM>UTC</TIME_SYSTEM><MEAN_ELEMENT_THEORY>SGP4</MEAN_ELEMENT_THEORY></metadata><data><meanElements><EPOCH>2024-07-08T20:37:02.653536</EPOCH><MEAN_MOTION>13.12442035</MEAN_MOTION><ECCENTRICITY>.0001805</ECCENTRICITY><INCLINATION>87.8953</INCLINATION><RA_OF_ASC_NODE>131.6970</RA_OF_ASC_NODE><ARG_OF_PERICENTER>91.4279</ARG_OF_PERICENTER><MEAN_ANOMALY>268.7056</MEAN_ANOMALY></meanElements><tleParameters><EPHEMERIS_TYPE>0</EPHEMERIS_TYPE><CLASSIFICATION_TYPE>U</CLASSIFICATION_TYPE><NORAD_CAT_ID>47264</NORAD_CAT_ID><ELEMENT_SET_NO>999</ELEMENT_SET_NO><REV_AT_EPOCH>17181</REV_AT_EPOCH><BSTAR>-.10535E-2</BSTAR><MEAN_MOTION_DOT>-.366E-5</MEAN_MOTION_DOT><MEAN_MOTION_DDOT>0</MEAN_MOTION_DDOT></tleParameters></data></segment></body></omm>
<omm id="CCSDS_OMM_VERS" version="2.0">
<header><CREATION_DATE/><ORIGINATOR/></header><body><segment><metadata><OBJECT_NAME>ONEWEB-0119</OBJECT_NAME><OBJECT_ID>2020-100H</OBJECT_ID><CENTER_NAME>EARTH</CENTER_NAME><REF_FRAME>TEME</REF_FRAME><TIME_SYSTEM>UTC</TIME_SYSTEM><MEAN_ELEMENT_THEORY>SGP4</MEAN_ELEMENT_THEORY></metadata><data><meanElements><EPOCH>2024-07-08T21:16:44.478624</EPOCH><MEAN_MOTION>13.12446045</MEAN_MOTION><ECCENTRICITY>.0002053</ECCENTRICITY><INCLINATION>87.8953</INCLINATION><RA_OF_ASC_NODE>131.7302</RA_OF_ASC_NODE><ARG_OF_PERICENTER>78.0245</ARG_OF_PERICENTER><MEAN_ANOMALY>282.1113</MEAN_ANOMALY></meanElements><tleParameters><EPHEMERIS_TYPE>0</EPHEMERIS_TYPE><CLASSIFICATION_TYPE>U</CLASSIFICATION_TYPE><NORAD_CAT_ID>47265</NORAD_CAT_ID><ELEMENT_SET_NO>999</ELEMENT_SET_NO><REV_AT_EPOCH>17179</REV_AT_EPOCH><BSTAR>.14571E-3</BSTAR><MEAN_MOTION_DOT>.65E-6</MEAN_MOTION_DOT><MEAN_MOTION_DDOT>0</MEAN_MOTION_DDOT></tleParameters></data></segment></body></omm>

</ndm>
