ONEWEB-0102             
1 47258U 20100A   24191.12022067  .00000247  00000+0  65073-3 0  9992
2 47258  87.8953 131.6842 0001882  77.4488 282.6851 13.12443524171853
ONEWEB-0109             
1 47259U 20100B   24191.12833340  .00000444  00000+0  11974-2 0  9996
2 47259  87.8954 131.6474 0001927  77.7948 282.3396 13.12445410171688
ONEWEB-0110             
1 47260U 20100C   24190.92556986 -.00000077  00000+0 -24928-3 0  9991
2 47260  87.8948 131.6923 0002021  75.1500 284.9852 13.12441658171825
ONEWEB-0111             
1 47261U 20100D   24190.88014765 -.00000094  00000+0 -29598-3 0  9998
2 47261  87.8953 131.6983 0001977  78.4519 281.6832 13.12445900171650
ONEWEB-0114             
1 47262U 20100E   24190.91096466  .00000427  00000+0  11508-2 0  9990
2 47262  87.8951 131.7070 0001624  80.0055 280.1257 13.12440984171618
ONEWEB-0117             
1 47263U 20100F   24191.20782288  .00000484  00000+0  13108-2 0  9999
2 47263  87.8954 131.6241 0002082  79.2249 280.9114 13.12443625171665
ONEWEB-0118             
1 47264U 20100G   24190.85905849 -.00000366  00000+0 -10535-2 0  9992
2 47264  87.8953 131.6970 0001805  91.4279 268.7056 13.12442035171815
ONEWEB-0119             
1 47265U 20100H   24190.88662591  .00000065  00000+0  14571-3 0  9999
2 47265  87.8953 131.7302 0002053  78.0245 282.1113 13.12446045171792
